[{"OBJECT_NAME":"S-NET A","OBJECT_ID":"2018-014J","EPOCH":"2026-03-09T17:45:22.875840","MEAN_MOTION":15.15637105,"ECCENTRICITY":0.00092363,"INCLINATION":97.5446,"RA_OF_ASC_NODE":334.3608,"ARG_OF_PERICENTER":10.8145,"MEAN_ANOMALY":349.3285,"EPHEMERIS_TYPE":0,"CLASSIFICATION_TYPE":"U","NORAD_CAT_ID":43188,"ELEMENT_SET_NO":999,"REV_AT_EPOCH":44369,"BSTAR":0.00039378194,"MEAN_MOTION_DOT":7.428e-5,"MEAN_MOTION_DDOT":0},{"OBJECT_NAME":"STARLINK-5084","OBJECT_ID":"2022-177AH","EPOCH":"2026-03-09T22:00:01.999584","MEAN_MOTION":15.12808158,"ECCENTRICITY":0.00010634,"INCLINATION":43.0006,"RA_OF_ASC_NODE":119.1578,"ARG_OF_PERICENTER":316.9675,"MEAN_ANOMALY":221.8614,"EPHEMERIS_TYPE":0,"CLASSIFICATION_TYPE":"U","NORAD_CAT_ID":54851,"ELEMENT_SET_NO":999,"REV_AT_EPOCH":573,"BSTAR":0.0025942942,"MEAN_MOTION_DOT":0.00046442,"MEAN_MOTION_DDOT":0}]
